{
    "links": {
        "self": "http://www.neowsapp.com/rest/v1/neo/3825622?api_key=iIulBulltgU6a56xZRHN4H3l9WmuAYTsLGpBGhQ2"
    },
    "id": "3825622",
    "neo_reference_id": "3825622",
    "name": "(2018 NO3)",
    "designation": "2018 NO3",
    "nasa_jpl_url": "http://ssd.jpl.nasa.gov/sbdb.cgi?sstr=3825622",
    "absolute_magnitude_h": 22.1,
    "estimated_diameter": {
        "kilometers": {
            "estimated_diameter_min": 0.1010543415,
            "estimated_diameter_max": 0.2259643771
        },
        "meters": {
            "estimated_diameter_min": 101.054341542,
            "estimated_diameter_max": 225.9643771094
        },
        "miles": {
            "estimated_diameter_min": 0.0627922373,
            "estimated_diameter_max": 0.140407711
        },
        "feet": {
            "estimated_diameter_min": 331.5431259047,
            "estimated_diameter_max": 741.3529669956
        }
    },
    "is_potentially_hazardous_asteroid": false,
    "close_approach_data": [
        {
            "close_approach_date": "2018-07-08",
            "close_approach_date_full": "2018-Jul-08 09:48",
            "epoch_date_close_approach": 1531043280000,
            "relative_velocity": {
                "kilometers_per_second": "11.6170032783",
                "kilometers_per_hour": "41821.2118020431",
                "miles_per_hour": "25986.0746333306"
            },
            "miss_distance": {
                "astronomical": "0.2533142102",
                "lunar": "98.5392277678",
                "kilometers": "37895266.286652274",
                "miles": "23547026.5803944212"
            },
            "orbiting_body": "Earth"
        },
        {
            "close_approach_date": "2195-07-03",
            "close_approach_date_full": "2195-Jul-03 16:22",
            "epoch_date_close_approach": 7116222120000,
            "relative_velocity": {
                "kilometers_per_second": "10.4161338977",
                "kilometers_per_hour": "37498.0820318899",
                "miles_per_hour": "23299.8499158707"
            },
            "miss_distance": {
                "astronomical": "0.2124056411",
                "lunar": "82.6257943879",
                "kilometers": "31775431.484544457",
                "miles": "19744337.5673972266"
            },
            "orbiting_body": "Earth"
        }
    ],
    "orbital_data": {
        "orbit_id": "2",
        "orbit_determination_date": "2018-07-15 06:54:20",
        "first_observation_date": "2018-06-17",
        "last_observation_date": "2018-07-14",
        "data_arc_in_days": 27,
        "observations_used": 18,
        "orbit_uncertainty": "7",
        "minimum_orbit_intersection": ".18914",
        "jupiter_tisserand_invariant": "3.104",
        "epoch_osculation": "2459000.5",
        "eccentricity": ".5471195223531116",
        "semi_major_axis": "2.652930493143656",
        "inclination": "17.02952338304861",
        "ascending_node_longitude": "105.4913057604428",
        "orbital_period": "1578.29156060026",
        "perihelion_distance": "1.201460428898894",
        "perihelion_argument": "169.3601053427161",
        "aphelion_distance": "4.104400557388418",
        "perihelion_time": "2458305.740210425608",
        "mean_anomaly": "158.4710521747055",
        "mean_motion": ".228094737998272",
        "equinox": "J2000",
        "orbit_class": {
            "orbit_class_type": "AMO",
            "orbit_class_description": "Near-Earth asteroid orbits similar to that of 1221 Amor",
            "orbit_class_range": "1.017 AU < q (perihelion) < 1.3 AU"
        }
    },
    "is_sentry_object": false
}